[{"OBJECT_NAME":"STARLINK-32622","OBJECT_ID":"2024-207R","EPOCH":"2026-03-09T22:22:17.427360","MEAN_MOTION":15.27602488,"ECCENTRICITY":8.951e-5,"INCLINATION":42.9991,"RA_OF_ASC_NODE":279.983,"ARG_OF_PERICENTER":273.3347,"MEAN_ANOMALY":86.7402,"EPHEMERIS_TYPE":0,"CLASSIFICATION_TYPE":"U","NORAD_CAT_ID":61927,"ELEMENT_SET_NO":999,"REV_AT_EPOCH":7476,"BSTAR":0.0010789444,"MEAN_MOTION_DOT":0.00029567,"MEAN_MOTION_DDOT":0},{"OBJECT_NAME":"GEOSCAN 1 (RS92S1)","OBJECT_ID":"2025-155E","EPOCH":"2026-03-09T22:44:05.846496","MEAN_MOTION":15.28410635,"ECCENTRICITY":0.00087099,"INCLINATION":97.4463,"RA_OF_ASC_NODE":37.403,"ARG_OF_PERICENTER":153.6429,"MEAN_ANOMALY":206.5255,"EPHEMERIS_TYPE":0,"CLASSIFICATION_TYPE":"U","NORAD_CAT_ID":64880,"ELEMENT_SET_NO":999,"REV_AT_EPOCH":6560,"BSTAR":0.00054367431,"MEAN_MOTION_DOT":0.00014993,"MEAN_MOTION_DDOT":0}]
